{
  "norad_id": 61574,
  "name": "STARLINK-11356 [DTC]",
  "history": [
    {
      "epoch": "2026-03-28T18:00:01.100736Z",
      "apogee_km": 360.398513771599,
      "perigee_km": 358.97750647696375,
      "latitude_deg": 3.034619252557883e-05,
      "longitude_deg": 106.14325405062533,
      "height_km": 361.0361733973138,
      "semi_major_axis_km": 6737.825010124281,
      "eccentricity": 0.00010545,
      "inclination_deg": 53.1592,
      "raan_deg": 202.3138,
      "arg_perigee_deg": 127.6751,
      "mean_anomaly_deg": 232.4363,
      "mean_motion_rev_day": 15.69723538
    }
  ]
}