{"fetched_at":"2026-03-29T16:36:15Z","count":15609,"tles":[{"name":"STARLINK-11356 [DTC]","line1":"1 61574U 24187A   26087.75001274  .00002414  00000+0  24760-4 0  9997","line2":"2 61574  53.1592 202.3138 0001054 127.6751 232.4363 15.69723538 83775","category":"Starlink"}]}